{"fetched_at":"2026-07-10T07:59:24.230Z","source":"https://celestrak.org/NORAD/elements/gp.php?NAME=STRIX&FORMAT=JSON","constellation":"synspective","records":[{"OBJECT_NAME":"STRIX-1","OBJECT_ID":"2022-113A","EPOCH":"2026-07-09T20:34:03.910944","CLASSIFICATION_TYPE":"U","MEAN_MOTION":15.40833938,"ECCENTRICITY":0.000526,"INCLINATION":97.4485,"RA_OF_ASC_NODE":253.2989,"ARG_OF_PERICENTER":145.8094,"MEAN_ANOMALY":214.3492,"EPHEMERIS_TYPE":0,"NORAD_CAT_ID":53815,"ELEMENT_SET_NO":999,"REV_AT_EPOCH":21093,"BSTAR":0.00046502,"MEAN_MOTION_DOT":0.00019015,"MEAN_MOTION_DDOT":0},{"OBJECT_NAME":"STRIX-3","OBJECT_ID":"2024-047A","EPOCH":"2026-07-09T19:56:27.340800","CLASSIFICATION_TYPE":"U","MEAN_MOTION":15.1975437,"ECCENTRICITY":0.0012633,"INCLINATION":97.6628,"RA_OF_ASC_NODE":166.8464,"ARG_OF_PERICENTER":354.2176,"MEAN_ANOMALY":5.891,"EPHEMERIS_TYPE":0,"NORAD_CAT_ID":59224,"ELEMENT_SET_NO":999,"REV_AT_EPOCH":12818,"BSTAR":0.00029647,"MEAN_MOTION_DOT":0.00006282,"MEAN_MOTION_DDOT":0},{"OBJECT_NAME":"STRIX-4","OBJECT_ID":"2024-137A","EPOCH":"2026-07-09T19:55:07.901184","CLASSIFICATION_TYPE":"U","MEAN_MOTION":15.33199496,"ECCENTRICITY":0.0015718,"INCLINATION":43.0142,"RA_OF_ASC_NODE":156.122,"ARG_OF_PERICENTER":94.0158,"MEAN_ANOMALY":266.2493,"EPHEMERIS_TYPE":0,"NORAD_CAT_ID":60352,"ELEMENT_SET_NO":999,"REV_AT_EPOCH":10749,"BSTAR":0.00033453,"MEAN_MOTION_DOT":0.00010732,"MEAN_MOTION_DDOT":0},{"OBJECT_NAME":"STRIX-2","OBJECT_ID":"2024-248A","EPOCH":"2026-07-09T21:12:23.661216","CLASSIFICATION_TYPE":"U","MEAN_MOTION":15.09159474,"ECCENTRICITY":0.0013552,"INCLINATION":97.6293,"RA_OF_ASC_NODE":146.3962,"ARG_OF_PERICENTER":256.2569,"MEAN_ANOMALY":103.7151,"EPHEMERIS_TYPE":0,"NORAD_CAT_ID":62406,"ELEMENT_SET_NO":999,"REV_AT_EPOCH":8501,"BSTAR":0.00027749,"MEAN_MOTION_DOT":0.0000435,"MEAN_MOTION_DDOT":0},{"OBJECT_NAME":"STRIX-5","OBJECT_ID":"2025-229A","EPOCH":"2026-07-09T14:35:13.532928","CLASSIFICATION_TYPE":"U","MEAN_MOTION":15.04565936,"ECCENTRICITY":0.0037248,"INCLINATION":41.9265,"RA_OF_ASC_NODE":163.0563,"ARG_OF_PERICENTER":201.6748,"MEAN_ANOMALY":158.2503,"EPHEMERIS_TYPE":0,"NORAD_CAT_ID":65971,"ELEMENT_SET_NO":999,"REV_AT_EPOCH":4035,"BSTAR":0.00014869,"MEAN_MOTION_DOT":0.00001956,"MEAN_MOTION_DDOT":0},{"OBJECT_NAME":"STRIX-6","OBJECT_ID":"2026-056A","EPOCH":"2026-07-09T13:47:16.291104","CLASSIFICATION_TYPE":"U","MEAN_MOTION":15.00313284,"ECCENTRICITY":0.001661,"INCLINATION":50.2819,"RA_OF_ASC_NODE":243.9585,"ARG_OF_PERICENTER":329.5066,"MEAN_ANOMALY":30.4916,"EPHEMERIS_TYPE":0,"NORAD_CAT_ID":68291,"ELEMENT_SET_NO":999,"REV_AT_EPOCH":1663,"BSTAR":0.0001455,"MEAN_MOTION_DOT":0.00001582,"MEAN_MOTION_DDOT":0},{"OBJECT_NAME":"STRIX-7","OBJECT_ID":"2026-112A","EPOCH":"2026-07-09T19:01:55.860096","CLASSIFICATION_TYPE":"U","MEAN_MOTION":15.01583516,"ECCENTRICITY":0.0024086,"INCLINATION":44.9077,"RA_OF_ASC_NODE":73.707,"ARG_OF_PERICENTER":177.965,"MEAN_ANOMALY":182.1324,"EPHEMERIS_TYPE":0,"NORAD_CAT_ID":69177,"ELEMENT_SET_NO":999,"REV_AT_EPOCH":727,"BSTAR":0.00021162,"MEAN_MOTION_DOT":0.00002568,"MEAN_MOTION_DDOT":0},{"OBJECT_NAME":"STRIX-8","OBJECT_ID":"2026-146A","EPOCH":"2026-07-09T18:35:48.659136","CLASSIFICATION_TYPE":"U","MEAN_MOTION":15.0440522,"ECCENTRICITY":0.0008047,"INCLINATION":41.9901,"RA_OF_ASC_NODE":43.1189,"ARG_OF_PERICENTER":346.6171,"MEAN_ANOMALY":13.4442,"EPHEMERIS_TYPE":0,"NORAD_CAT_ID":69701,"ELEMENT_SET_NO":999,"REV_AT_EPOCH":196,"BSTAR":0.0002271,"MEAN_MOTION_DOT":0.00003037,"MEAN_MOTION_DDOT":0}]}
