STRIX-1                 
1 53815U 22113A   26190.85698971  .00019015  00000+0  46502-3 0  9997
2 53815  97.4485 253.2989 0005260 145.8094 214.3492 15.40833938210937
STRIX-3                 
1 59224U 24047A   26190.83087200  .00006282  00000+0  29647-3 0  9993
2 59224  97.6628 166.8464 0012633 354.2176   5.8910 15.19754370128185
STRIX-4                 
1 60352U 24137A   26190.82995256  .00010732  00000+0  33453-3 0  9990
2 60352  43.0142 156.1220 0015718  94.0158 266.2493 15.33199496107491
STRIX-2                 
1 62406U 24248A   26190.88360719  .00004350  00000+0  27749-3 0  9991
2 62406  97.6293 146.3962 0013552 256.2569 103.7151 15.09159474 85015
STRIX-5                 
1 65971U 25229A   26190.60779552  .00001956  00000+0  14869-3 0  9998
2 65971  41.9265 163.0563 0037248 201.6748 158.2503 15.04565936 40353
STRIX-6                 
1 68291U 26056A   26190.57449411  .00001582  00000+0  14550-3 0  9991
2 68291  50.2819 243.9585 0016610 329.5066  30.4916 15.00313284 16630
STRIX-7                 
1 69177U 26112A   26190.79300764  .00002568  00000+0  21162-3 0  9991
2 69177  44.9077  73.7070 0024086 177.9650 182.1324 15.01583516  7274
STRIX-8                 
1 69701U 26146A   26190.77486874  .00003037  00000+0  22710-3 0  9998
2 69701  41.9901  43.1189 0008047 346.6171  13.4442 15.04405220  1969
